[{"OBJECT_NAME":"UNISAT-6","OBJECT_ID":"2014-033C","EPOCH":"2026-03-09T22:37:09.123744","MEAN_MOTION":14.87640019,"ECCENTRICITY":0.00460496,"INCLINATION":97.7728,"RA_OF_ASC_NODE":223.5167,"ARG_OF_PERICENTER":36.9255,"MEAN_ANOMALY":323.5117,"EPHEMERIS_TYPE":0,"CLASSIFICATION_TYPE":"U","NORAD_CAT_ID":40012,"ELEMENT_SET_NO":999,"REV_AT_EPOCH":63140,"BSTAR":0.00041207686,"MEAN_MOTION_DOT":3.766e-5,"MEAN_MOTION_DDOT":0},{"OBJECT_NAME":"ATLAS CENTAUR 2 DEB","OBJECT_ID":"1963-047F","EPOCH":"2026-03-09T07:28:06.080736","MEAN_MOTION":13.40166529,"ECCENTRICITY":0.07171741,"INCLINATION":30.4785,"RA_OF_ASC_NODE":167.5855,"ARG_OF_PERICENTER":23.8136,"MEAN_ANOMALY":339.3995,"EPHEMERIS_TYPE":0,"CLASSIFICATION_TYPE":"U","NORAD_CAT_ID":700,"ELEMENT_SET_NO":999,"REV_AT_EPOCH":3672,"BSTAR":7.6302113e-5,"MEAN_MOTION_DOT":2.5e-6,"MEAN_MOTION_DDOT":0}]
